[{"OBJECT_NAME":"TIANQI-39","OBJECT_ID":"2026-010C","EPOCH":"2026-03-08T16:50:36.580128","MEAN_MOTION":14.04334884,"ECCENTRICITY":0.00155129,"INCLINATION":44.9813,"RA_OF_ASC_NODE":168.7554,"ARG_OF_PERICENTER":221.5775,"MEAN_ANOMALY":138.3881,"EPHEMERIS_TYPE":0,"CLASSIFICATION_TYPE":"U","NORAD_CAT_ID":67478,"ELEMENT_SET_NO":999,"REV_AT_EPOCH":732,"BSTAR":0.00014701681,"MEAN_MOTION_DOT":1.06e-6,"MEAN_MOTION_DDOT":0},{"OBJECT_NAME":"OBJECT C","OBJECT_ID":"2022-056C","EPOCH":"2026-03-09T23:18:46.863072","MEAN_MOTION":14.04339652,"ECCENTRICITY":0.00139348,"INCLINATION":85.9984,"RA_OF_ASC_NODE":67.4677,"ARG_OF_PERICENTER":332.2945,"MEAN_ANOMALY":27.749,"EPHEMERIS_TYPE":0,"CLASSIFICATION_TYPE":"U","NORAD_CAT_ID":52718,"ELEMENT_SET_NO":999,"REV_AT_EPOCH":19496,"BSTAR":0.00020359741,"MEAN_MOTION_DOT":3.42e-6,"MEAN_MOTION_DDOT":0}]
